NORAD_CAT_ID,OBJECT_NAME,OBJECT_TYPE,EPOCH,MEAN_MOTION,ECCENTRICITY,INCLINATION,RA_OF_ASC_NODE,ARG_OF_PERICENTER,MEAN_ANOMALY,BSTAR,MEAN_MOTION_DOT,MEAN_MOTION_DDOT,TLE_LINE0,TLE_LINE1,TLE_LINE2,SEMIMAJOR_AXIS,PERIOD,APOGEE,PERIGEE,DECAYED
55423.0,STARLINK-5068,PAYLOAD,2023-08-25 11:19:43,14.9833084,0.000377,69.9981,262.3122,267.0319,93.0409,-1.4322e-05,-2.64e-06,0.0,0 STARLINK-5068,1 55423U 23014AJ  23237.47203174 -.00000264  00000-0 -14322-4 0  9994,2 55423  69.9981 262.3122 0003770 267.0319  93.0409 14.98330840 32679,6950.19,96.107,574.676,569.435,0.0
55423.0,STARLINK-5068,PAYLOAD,2023-08-25 12:55:51,14.98330972,0.0003767,69.9981,262.1439,266.6216,93.4512,-1.2313e-05,-2.4e-06,0.0,0 STARLINK-5068,1 55423U 23014AJ  23237.53879152 -.00000240  00000-0 -12313-4 0  9998,2 55423  69.9981 262.1439 0003767 266.6216  93.4512 14.98330972 31747,6950.19,96.107,574.673,569.437,0.0
55423.0,STARLINK-5068,PAYLOAD,2023-08-26 01:45:04,14.98245191,0.0003985,69.998,260.7974,261.9486,98.1221,-0.00084037,-0.00010085,0.0,0 STARLINK-5068,1 55423U 23014AJ  23238.07296520 -.00010085  00000-0 -84037-3 0  9999,2 55423  69.9980 260.7974 0003985 261.9486  98.1221 14.98245191 31829,6950.455,96.112,575.09,569.55,0.0
55423.0,STARLINK-5068,PAYLOAD,2023-08-26 09:46:08,14.97980459,0.0003041,69.9981,259.9569,274.1847,85.8964,-0.003593,-0.00042323,0.0,0 STARLINK-5068,1 55423U 23014AJ  23238.40704577 -.00042323  00000-0 -35930-2 0  9999,2 55423  69.9981 259.9569 0003041 274.1847  85.8964 14.97980459 31874,6951.274,96.129,575.253,571.025,0.0
55423.0,STARLINK-5068,PAYLOAD,2023-08-26 11:22:23,14.97909935,0.000333,69.998,259.7888,265.9499,94.1279,-0.0043332,-0.00050869,0.0,0 STARLINK-5068,1 55423U 23014AJ  23238.47387984 -.00050869  00000-0 -43332-2 0  9994,2 55423  69.9980 259.7888 0003330 265.9499  94.1279 14.97909935 32825,6951.492,96.134,575.672,571.042,0.0
55423.0,STARLINK-5068,PAYLOAD,2023-08-27 01:48:09,14.9769081,0.0002624,69.9984,258.2774,244.7948,115.2939,-0.0058989,-0.00068649,0.0,0 STARLINK-5068,1 55423U 23014AJ  23239.07510647 -.00068649  00000-0 -58989-2 0  9994,2 55423  69.9984 258.2774 0002624 244.7948 115.2939 14.97690810 31978,6952.17,96.148,575.859,572.211,0.0
55423.0,STARLINK-5068,PAYLOAD,2023-08-27 14:00:01,14.96723089,0.0002916,69.9996,256.9954,268.9262,310.0769,-0.0011694,-0.00013453,0.0,0 STARLINK-5068,1 55423U 23014AJ  23239.58334491 -.00013453  00000-0 -11694-2 0  9996,2 55423  69.9996 256.9954 0002916 268.9262 310.0769 14.96723089 32057,6955.167,96.21,579.06,575.003,0.0
55423.0,STARLINK-5068,PAYLOAD,2023-08-27 22:00:00,14.96678293,0.0002949,69.9997,256.1573,263.4072,311.1556,0.0058567,0.0006753,0.0,0 STARLINK-5068,1 55423U 23014AJ  23239.91667824  .00067530  00000-0  58567-2 0  9995,2 55423  69.9997 256.1573 0002949 263.4072 311.1556 14.96678293  5728,6955.305,96.213,579.221,575.119,0.0
55423.0,STARLINK-5068,PAYLOAD,2023-08-28 14:00:01,14.96725708,0.000287,69.9993,254.4807,270.3477,295.2951,-0.0017315,-0.00019859,0.0,0 STARLINK-5068,1 55423U 23014AJ  23240.58334491 -.00019859  00000-0 -17315-2 0  9990,2 55423  69.9993 254.4807 0002870 270.3477 295.2951 14.96725708 32202,6955.158,96.21,579.02,575.027,0.0
55423.0,STARLINK-5068,PAYLOAD,2023-08-28 22:00:00,14.96682228,0.0002884,69.9993,253.6425,263.8111,297.3877,0.0053932,0.00062136,0.0,0 STARLINK-5068,1 55423U 23014AJ  23240.91667824  .00062136  00000-0  53932-2 0  9995,2 55423  69.9993 253.6425 0002884 263.8111 297.3877 14.96682228  5823,6955.293,96.213,579.164,575.152,0.0
55423.0,STARLINK-5068,PAYLOAD,2023-08-29 06:00:00,14.96731847,0.0002896,69.9995,252.8041,267.4433,289.2954,-0.0029947,-0.00034215,0.0,0 STARLINK-5068,1 55423U 23014AJ  23241.25001157 -.00034215  00000-0 -29947-2 0  9992,2 55423  69.9995 252.8041 0002896 267.4433 289.2954 14.96731847 32301,6955.139,96.21,579.019,574.99,0.0
55423.0,STARLINK-5068,PAYLOAD,2023-08-29 22:00:00,14.96684238,0.0002877,69.9991,251.1273,263.9966,283.8446,0.0052354,0.00060303,0.0,0 STARLINK-5068,1 55423U 23014AJ  23241.91667824  .00060303  00000-0  52354-2 0  9997,2 55423  69.9991 251.1273 0002877 263.9966 283.8446 14.96684238 32405,6955.287,96.213,579.153,575.151,0.0
55423.0,STARLINK-5068,PAYLOAD,2023-08-30 14:00:01,14.96726909,0.0002899,69.999,249.4502,270.7,268.2223,-0.0028266,-0.00032304,0.0,0 STARLINK-5068,1 55423U 23014AJ  23242.58334491 -.00032304  00000-0 -28266-2 0  9999,2 55423  69.9990 249.4502 0002899 270.7000 268.2223 14.96726909 32501,6955.155,96.21,579.036,575.003,0.0
55423.0,STARLINK-5068,PAYLOAD,2023-08-31 00:00:02,14.96707045,0.0002929,69.9994,248.4022,263.1732,0.2389,0.0020554,0.00023508,0.0,0 STARLINK-5068,1 55423U 23014AJ  23243.00002315  .00023508  00000-0  20554-2 0  9990,2 55423  69.9994 248.4022 0002929 263.1732   0.2389 14.96707045  5780,6955.216,96.211,579.118,575.044,0.0
55423.0,STARLINK-5068,PAYLOAD,2023-08-31 00:25:52,14.96712266,0.0003065,69.9987,248.3574,265.6721,94.4087,-5.8452e-06,-1.59e-06,0.0,0 STARLINK-5068,1 55423U 23014AJ  23243.01796858 -.00000159  00000-0 -58452-5 0  9993,2 55423  69.9987 248.3574 0003065 265.6721  94.4087 14.96712266 32567,6955.2,96.211,579.197,574.933,0.0
55423.0,STARLINK-5068,PAYLOAD,2023-08-31 06:50:49,14.96712707,0.0002809,69.9987,247.6852,266.811,93.2727,-2.0311e-05,-3.24e-06,0.0,0 STARLINK-5068,1 55423U 23014AJ  23243.28529779 -.00000324  00000-0 -20311-4 0  9994,2 55423  69.9987 247.6852 0002809 266.8110  93.2727 14.96712707 33545,6955.199,96.211,579.017,575.11,0.0
55423.0,STARLINK-5068,PAYLOAD,2023-09-01 00:29:26,14.96713769,0.0002721,69.9992,245.8372,263.7894,96.2954,-4.1328e-07,-9.6e-07,0.0,0 STARLINK-5068,1 55423U 23014AJ  23244.02044813 -.00000096  00000-0 -41328-6 0  9997,2 55423  69.9992 245.8372 0002721 263.7894  96.2954 14.96713769 32718,6955.195,96.211,578.953,575.168,0.0
55423.0,STARLINK-5068,PAYLOAD,2023-09-01 06:54:24,14.96703486,0.000303,69.9992,245.1661,266.4612,93.62,1.685e-05,1.01e-06,0.0,0 STARLINK-5068,1 55423U 23014AJ  23244.28778242  .00000101  00000-0  16850-4 0  9990,2 55423  69.9992 245.1661 0003030 266.4612  93.6200 14.96703486 32758,6955.227,96.211,579.2,574.985,0.0
55423.0,STARLINK-5068,PAYLOAD,2023-09-01 22:56:46,14.96709273,0.0002976,70.0148,243.4887,264.5402,95.5416,0.00016887,1.842e-05,0.0,0 STARLINK-5068,1 55423U 23014AJ  23244.95609442  .00001842  00000-0  16887-3 0  9991,2 55423  70.0148 243.4887 0002976 264.5402  95.5416 14.96709273 32850,6955.209,96.211,579.144,575.005,0.0
55423.0,STARLINK-5068,PAYLOAD,2023-09-02 06:57:57,14.96715569,0.0002637,70.0003,242.6427,266.3759,93.7098,3.2582e-05,2.81e-06,0.0,0 STARLINK-5068,1 55423U 23014AJ  23245.29025462  .00000281  00000-0  32582-4 0  9990,2 55423  70.0003 242.6427 0002637 266.3759  93.7098 14.96715569 33841,6955.19,96.211,578.889,575.221,0.0
55423.0,STARLINK-5068,PAYLOAD,2023-09-02 16:35:23,14.96715996,0.0002856,69.9996,241.6341,267.3297,92.7534,2.3344e-05,1.76e-06,0.0,0 STARLINK-5068,1 55423U 23014AJ  23245.69124619  .00000176  00000-0  23344-4 0  9997,2 55423  69.9996 241.6341 0002856 267.3297  92.7534 14.96715996 33909,6955.189,96.211,579.04,575.067,0.0
55423.0,STARLINK-5068,PAYLOAD,2023-09-03 00:36:35,14.9671649,0.0002765,70.0001,240.7939,267.09,92.9941,-1.2308e-05,-2.32e-06,0.0,0 STARLINK-5068,1 55423U 23014AJ  23246.02540682 -.00000232  00000-0 -12308-4 0  9990,2 55423  70.0001 240.7939 0002765 267.0900  92.9941 14.96716490 33015,6955.187,96.211,578.975,575.129,0.0
55423.0,STARLINK-5068,PAYLOAD,2023-09-03 08:37:46,14.96714744,0.0002804,69.9997,239.9535,267.0019,93.0819,-2.9422e-05,-4.28e-06,0.0,0 STARLINK-5068,1 55423U 23014AJ  23246.35956814 -.00000428  00000-0 -29422-4 0  9996,2 55423  69.9997 239.9535 0002804 267.0019  93.0819 14.96714744 34009,6955.192,96.211,579.008,575.107,0.0
55423.0,STARLINK-5068,PAYLOAD,2023-09-04 05:28:52,14.96715263,0.0002833,69.9995,237.7679,269.0418,91.0415,-2.3933e-05,-3.65e-06,0.0,0 STARLINK-5068,1 55423U 23014AJ  23247.22838322 -.00000365  00000-0 -23933-4 0  9997,2 55423  69.9995 237.7679 0002833 269.0418  91.0415 14.96715263 33195,6955.191,96.211,579.026,575.085,0.0
55423.0,STARLINK-5068,PAYLOAD,2023-09-05 05:32:26,14.9671456,0.0002887,69.9996,235.2468,269.7255,90.3572,1.8823e-05,1.24e-06,0.0,0 STARLINK-5068,1 55423U 23014AJ  23248.23086229  .00000124  00000-0  18823-4 0  9993,2 55423  69.9996 235.2468 0002887 269.7255  90.3572 14.96714560 33342,6955.193,96.211,579.066,575.05,0.0
55423.0,STARLINK-5068,PAYLOAD,2023-09-06 05:35:59,14.96725869,0.0002913,69.9999,232.7257,271.2923,88.7901,7.0378e-05,7.14e-06,0.0,0 STARLINK-5068,1 55423U 23014AJ  23249.23333226  .00000714  00000-0  70378-4 0  9994,2 55423  69.9999 232.7257 0002913 271.2923  88.7901 14.96725869 33490,6955.158,96.21,579.049,574.997,0.0
55423.0,STARLINK-5068,PAYLOAD,2023-09-06 08:48:22,14.96794403,0.0002693,69.9997,232.3891,264.8068,95.2783,0.00089374,0.00010173,0.0,0 STARLINK-5068,1 55423U 23014AJ  23249.36692977  .00010173  00000-0  89374-3 0  9994,2 55423  69.9997 232.3891 0002693 264.8068  95.2783 14.96794403 34459,6954.946,96.206,578.684,574.938,0.0
55423.0,STARLINK-5068,PAYLOAD,2023-09-06 16:49:16,14.96984523,0.0002881,69.9997,231.5477,267.3073,92.7755,0.0029316,0.00033859,0.0,0 STARLINK-5068,1 55423U 23014AJ  23249.70088960  .00033859  00000-0  29316-2 0  9998,2 55423  69.9997 231.5477 0002881 267.3073  92.7755 14.96984523 33569,6954.357,96.193,578.225,574.218,0.0
55423.0,STARLINK-5068,PAYLOAD,2023-09-06 21:37:50,14.97071268,0.0002943,69.9996,231.0431,274.3087,85.7735,0.0037612,0.00043625,0.0,0 STARLINK-5068,1 55423U 23014AJ  23249.90127409  .00043625  00000-0  37612-2 0  9992,2 55423  69.9996 231.0431 0002943 274.3087  85.7735 14.97071268 34537,6954.088,96.188,578.0,573.907,0.0
55423.0,STARLINK-5068,PAYLOAD,2023-09-07 02:26:17,14.97222347,0.0002988,69.9996,230.5382,268.2696,91.812,0.0052605,0.00061446,0.0,0 STARLINK-5068,1 55423U 23014AJ  23250.10158849  .00061446  00000-0  52605-2 0  9998,2 55423  69.9996 230.5382 0002988 268.2696  91.8120 14.97222347 33624,6953.62,96.178,577.563,573.408,0.0
